{
  "type": "FeatureCollection",
  "features": [
    {
      "type": "Feature",
      "properties": {
        "norad_id": 37487,
        "name": "COSMOS 2251 DEB",
        "group": "cosmos-2251-debris",
        "lat": -23.505659900756356,
        "lon": 169.04147918647357,
        "alt_km": 615.290441582847,
        "timestamp": "2025-12-20T16:47:36.682429+00:00",
        "meta_object_name": "COSMOS 2251 DEB",
        "meta_object_id": "1993-036BLQ",
        "meta_epoch": "2025-12-12T06:17:24.389376",
        "meta_mean_motion": 14.80982589,
        "meta_eccentricity": 0.00255931,
        "meta_inclination": 73.9026,
        "meta_ra_of_asc_node": 193.0379,
        "meta_arg_of_pericenter": 31.2136,
        "meta_mean_anomaly": 329.0553,
        "meta_ephemeris_type": 0,
        "meta_classification_type": "U",
        "meta_norad_cat_id": 37487,
        "meta_element_set_no": 999,
        "meta_rev_at_epoch": 81238,
        "meta_bstar": 0.0042593386,
        "meta_mean_motion_dot": 0.00033302,
        "meta_mean_motion_ddot": 0,
        "tle_line1": "1 37487U 93036BLQ 25346.26208784  .00033302  00000+0  42593-2 0  9992",
        "tle_line2": "2 37487  73.9026 193.0379 0025593  31.2136 329.0553 14.80982589812383"
      },
      "geometry": {
        "type": "Point",
        "coordinates": [
          169.04147918647357,
          -23.505659900756356
        ]
      }
    },
    {
      "type": "Feature",
      "properties": {
        "norad_id": 37491,
        "name": "COSMOS 2251 DEB",
        "group": "cosmos-2251-debris",
        "lat": -52.53558475838579,
        "lon": -121.38346308809929,
        "alt_km": 839.0762082524834,
        "timestamp": "2025-12-20T16:47:36.682439+00:00",
        "meta_object_name": "COSMOS 2251 DEB",
        "meta_object_id": "1993-036BLU",
        "meta_epoch": "2025-12-18T10:56:34.756512",
        "meta_mean_motion": 13.75306466,
        "meta_eccentricity": 0.03168182,
        "meta_inclination": 73.9061,
        "meta_ra_of_asc_node": 264.5073,
        "meta_arg_of_pericenter": 256.5569,
        "meta_mean_anomaly": 100.0063,
        "meta_ephemeris_type": 0,
        "meta_classification_type": "U",
        "meta_norad_cat_id": 37491,
        "meta_element_set_no": 999,
        "meta_rev_at_epoch": 55825,
        "meta_bstar": 0.00075469167,
        "meta_mean_motion_dot": 1.019e-05,
        "meta_mean_motion_ddot": 0,
        "tle_line1": "1 37491U 93036BLU 25352.45595783  .00001019  00000+0  75469-3 0  9992",
        "tle_line2": "2 37491  73.9061 264.5073 0316818 256.5569 100.0063 13.75306466558250"
      },
      "geometry": {
        "type": "Point",
        "coordinates": [
          -121.38346308809929,
          -52.53558475838579
        ]
      }
    },
    {
      "type": "Feature",
      "properties": {
        "norad_id": 37498,
        "name": "COSMOS 2251 DEB",
        "group": "cosmos-2251-debris",
        "lat": 68.70051197294431,
        "lon": -58.42248946105225,
        "alt_km": 708.1145953899559,
        "timestamp": "2025-12-20T16:47:36.682448+00:00",
        "meta_object_name": "COSMOS 2251 DEB",
        "meta_object_id": "1993-036BMB",
        "meta_epoch": "2025-12-17T05:47:45.632832",
        "meta_mean_motion": 14.54797097,
        "meta_eccentricity": 0.00121661,
        "meta_inclination": 74.035,
        "meta_ra_of_asc_node": 175.365,
        "meta_arg_of_pericenter": 238.5243,
        "meta_mean_anomaly": 121.4732,
        "meta_ephemeris_type": 0,
        "meta_classification_type": "U",
        "meta_norad_cat_id": 37498,
        "meta_element_set_no": 999,
        "meta_rev_at_epoch": 65420,
        "meta_bstar": 0.00050498457,
        "meta_mean_motion_dot": 2.139e-05,
        "meta_mean_motion_ddot": 0,
        "tle_line1": "1 37498U 93036BMB 25351.24150038  .00002139  00000+0  50498-3 0  9994",
        "tle_line2": "2 37498  74.0350 175.3650 0012166 238.5243 121.4732 14.54797097654202"
      },
      "geometry": {
        "type": "Point",
        "coordinates": [
          -58.42248946105225,
          68.70051197294431
        ]
      }
    },
    {
      "type": "Feature",
      "properties": {
        "norad_id": 37499,
        "name": "COSMOS 2251 DEB",
        "group": "cosmos-2251-debris",
        "lat": 73.94469189817755,
        "lon": 43.621135523233875,
        "alt_km": 763.1927150914962,
        "timestamp": "2025-12-20T16:47:36.682458+00:00",
        "meta_object_name": "COSMOS 2251 DEB",
        "meta_object_id": "1993-036BMC",
        "meta_epoch": "2025-12-18T20:50:53.978784",
        "meta_mean_motion": 14.34348181,
        "meta_eccentricity": 0.00271787,
        "meta_inclination": 74.038,
        "meta_ra_of_asc_node": 310.9692,
        "meta_arg_of_pericenter": 25.1963,
        "meta_mean_anomaly": 335.0508,
        "meta_ephemeris_type": 0,
        "meta_classification_type": "U",
        "meta_norad_cat_id": 37499,
        "meta_element_set_no": 999,
        "meta_rev_at_epoch": 85237,
        "meta_bstar": 0.00013763408,
        "meta_mean_motion_dot": 3.62e-06,
        "meta_mean_motion_ddot": 0,
        "tle_line1": "1 37499U 93036BMC 25352.86868031  .00000362  00000+0  13763-3 0  9993",
        "tle_line2": "2 37499  74.0380 310.9692 0027178  25.1963 335.0508 14.34348181852373"
      },
      "geometry": {
        "type": "Point",
        "coordinates": [
          43.621135523233875,
          73.94469189817755
        ]
      }
    },
    {
      "type": "Feature",
      "properties": {
        "norad_id": 37528,
        "name": "COSMOS 2251 DEB",
        "group": "cosmos-2251-debris",
        "lat": -9.082243586479109,
        "lon": 104.55563183567746,
        "alt_km": 729.2316972334593,
        "timestamp": "2025-12-20T16:47:36.682468+00:00",
        "meta_object_name": "COSMOS 2251 DEB",
        "meta_object_id": "1993-036BNH",
        "meta_epoch": "2025-12-19T14:21:12.198240",
        "meta_mean_motion": 14.50543409,
        "meta_eccentricity": 0.0021102,
        "meta_inclination": 74.0372,
        "meta_ra_of_asc_node": 109.2477,
        "meta_arg_of_pericenter": 256.6306,
        "meta_mean_anomaly": 103.2502,
        "meta_ephemeris_type": 0,
        "meta_classification_type": "U",
        "meta_norad_cat_id": 37528,
        "meta_element_set_no": 999,
        "meta_rev_at_epoch": 86030,
        "meta_bstar": 0.00032831,
        "meta_mean_motion_dot": 1.262e-05,
        "meta_mean_motion_ddot": 0,
        "tle_line1": "1 37528U 93036BNH 25353.59805785  .00001262  00000+0  32831-3 0  9991",
        "tle_line2": "2 37528  74.0372 109.2477 0021102 256.6306 103.2502 14.50543409860309"
      },
      "geometry": {
        "type": "Point",
        "coordinates": [
          104.55563183567746,
          -9.082243586479109
        ]
      }
    },
    {
      "type": "Feature",
      "properties": {
        "norad_id": 37530,
        "name": "COSMOS 2251 DEB",
        "group": "cosmos-2251-debris",
        "lat": 18.460789162419232,
        "lon": 133.58093852928195,
        "alt_km": 791.316828834515,
        "timestamp": "2025-12-20T16:47:36.682478+00:00",
        "meta_object_name": "COSMOS 2251 DEB",
        "meta_object_id": "1993-036BNK",
        "meta_epoch": "2025-12-20T04:25:20.724960",
        "meta_mean_motion": 14.34512323,
        "meta_eccentricity": 0.0026208,
        "meta_inclination": 74.0363,
        "meta_ra_of_asc_node": 320.008,
        "meta_arg_of_pericenter": 20.0363,
        "meta_mean_anomaly": 359.5359,
        "meta_ephemeris_type": 0,
        "meta_classification_type": "U",
        "meta_norad_cat_id": 37530,
        "meta_element_set_no": 999,
        "meta_rev_at_epoch": 85339,
        "meta_bstar": 0.00016497605,
        "meta_mean_motion_dot": 4.41e-06,
        "meta_mean_motion_ddot": 0,
        "tle_line1": "1 37530U 93036BNK 25354.18426765  .00000441  00000+0  16498-3 0  9996",
        "tle_line2": "2 37530  74.0363 320.0080 0026208  20.0363 359.5359 14.34512323853393"
      },
      "geometry": {
        "type": "Point",
        "coordinates": [
          133.58093852928195,
          18.460789162419232
        ]
      }
    },
    {
      "type": "Feature",
      "properties": {
        "norad_id": 37532,
        "name": "COSMOS 2251 DEB",
        "group": "cosmos-2251-debris",
        "lat": 12.536178219754788,
        "lon": 17.32588070773741,
        "alt_km": 759.1508542485562,
        "timestamp": "2025-12-20T16:47:36.682488+00:00",
        "meta_object_name": "COSMOS 2251 DEB",
        "meta_object_id": "1993-036BNM",
        "meta_epoch": "2025-12-14T09:22:45.259968",
        "meta_mean_motion": 14.42410404,
        "meta_eccentricity": 0.00160101,
        "meta_inclination": 74.0496,
        "meta_ra_of_asc_node": 212.6604,
        "meta_arg_of_pericenter": 313.2255,
        "meta_mean_anomaly": 226.6563,
        "meta_ephemeris_type": 0,
        "meta_classification_type": "U",
        "meta_norad_cat_id": 37532,
        "meta_element_set_no": 999,
        "meta_rev_at_epoch": 84939,
        "meta_bstar": 0.00027461522,
        "meta_mean_motion_dot": 8.83e-06,
        "meta_mean_motion_ddot": 0,
        "tle_line1": "1 37532U 93036BNM 25348.39080162  .00000883  00000+0  27462-3 0  9994",
        "tle_line2": "2 37532  74.0496 212.6604 0016010 313.2255 226.6563 14.42410404849399"
      },
      "geometry": {
        "type": "Point",
        "coordinates": [
          17.32588070773741,
          12.536178219754788
        ]
      }
    }
  ]
}